SHIJIAN-16 (SJ-16)      
1 39358U 13057A   26115.82188091  .00000864  00000+0  86938-4 0  9991
2 39358  74.9709  95.8504 0016216 352.3834   7.7105 14.92473099678538
SL-4 R/B                
1 39679U 14021B   26115.67565066  .00012033  00000+0  25812-3 0  9997
2 39679  51.6053 107.7779 0092737 274.8839  84.1562 15.40675203663513
ALOS-2                  
1 39766U 14029A   26115.18266031  .00000370  00000+0  56479-4 0  9993
2 39766  97.9197 213.1044 0001828  85.9380 274.2041 14.79472741643742
YAOGAN-29               
1 41038U 15069A   26115.82177786 -.00000041  00000+0  16457-5 0  9991
2 41038  98.0078 144.3633 0001721 140.9347 219.1990 14.83038537562863
ASTRO-H (HITOMI)        
1 41337U 16012A   26115.49636556  .00002861  00000+0  16478-3 0  9992
2 41337  30.9996  54.4204 0009374  82.6607 277.5096 15.10271737559310
HXMT (HUIYAN)           
1 42758U 17034A   26115.83173501  .00003352  00000+0  17161-3 0  9995
2 42758  43.0133 114.4605 0031407 175.6730 184.4395 15.17990105489707
SAOCOM 1A               
1 43641U 18076A   26115.81537626  .00000694  00000+0  93781-4 0  9993
2 43641  97.8906 303.3217 0001555  90.6018 269.5373 14.82154237408349
H-2A R/B                
1 43682U 18084L   26115.83343014  .00021216  00000+0  47517-3 0  9993
2 43682  98.8662 343.3566 0023411 216.5608 143.4038 15.43206272413040
SAOCOM 1B               
1 46265U 20059A   26115.77906744 -.00000361  00000+0 -38840-4 0  9996
2 46265  97.8899 302.3798 0001545  84.0048 276.1341 14.82140361305727
CSS (TIANHE)            
1 48274U 21035A   26115.84250579  .00029528  00000+0  31880-3 0  9999
2 48274  41.4670 280.7595 0006838 273.8055  86.2003 15.62957511284982
COSMOS 2550             
1 48865U 21056A   26115.85802323  .00001245  00000+0  43676-4 0  9992
2 48865  67.1425 258.1983 0008413 269.6554  90.3636 15.33824497270694
CZ-2C R/B               
1 52794U 22058K   26115.39248128  .00046492  00000+0  59663-3 0  9992
2 52794  50.1868  77.4034 0038960  40.8644 319.5237 15.57697834217403
CZ-2C R/B               
1 54039U 22132E   26115.52374874  .00043202  00000+0  41913-3 0  9997
2 54039  97.2944 120.4214 0012864 273.1631  86.8157 15.66133941197692
