[
    {
        "OBJECT_NAME": "SHIJIAN-16 (SJ-16)",
        "OBJECT_ID": "2013-057A",
        "EPOCH": "2026-04-25T19:43:30.510624",
        "MEAN_MOTION": 14.92473099,
        "ECCENTRICITY": 0.0016216,
        "INCLINATION": 74.9709,
        "RA_OF_ASC_NODE": 95.8504,
        "ARG_OF_PERICENTER": 352.3834,
        "MEAN_ANOMALY": 7.7105,
        "EPHEMERIS_TYPE": 0,
        "CLASSIFICATION_TYPE": "U",
        "NORAD_CAT_ID": 39358,
        "ELEMENT_SET_NO": 999,
        "REV_AT_EPOCH": 67853,
        "BSTAR": 8.6938e-05,
        "MEAN_MOTION_DOT": 8.64e-06,
        "MEAN_MOTION_DDOT": 0
    },
    {
        "OBJECT_NAME": "SL-4 R/B",
        "OBJECT_ID": "2014-021B",
        "EPOCH": "2026-04-25T16:12:56.217024",
        "MEAN_MOTION": 15.40675203,
        "ECCENTRICITY": 0.0092737,
        "INCLINATION": 51.6053,
        "RA_OF_ASC_NODE": 107.7779,
        "ARG_OF_PERICENTER": 274.8839,
        "MEAN_ANOMALY": 84.1562,
        "EPHEMERIS_TYPE": 0,
        "CLASSIFICATION_TYPE": "U",
        "NORAD_CAT_ID": 39679,
        "ELEMENT_SET_NO": 999,
        "REV_AT_EPOCH": 66351,
        "BSTAR": 0.00025812,
        "MEAN_MOTION_DOT": 0.00012033,
        "MEAN_MOTION_DDOT": 0
    },
    {
        "OBJECT_NAME": "ALOS-2",
        "OBJECT_ID": "2014-029A",
        "EPOCH": "2026-04-25T04:23:01.850784",
        "MEAN_MOTION": 14.79472741,
        "ECCENTRICITY": 0.00018283,
        "INCLINATION": 97.9197,
        "RA_OF_ASC_NODE": 213.1044,
        "ARG_OF_PERICENTER": 85.938,
        "MEAN_ANOMALY": 274.2041,
        "EPHEMERIS_TYPE": 0,
        "CLASSIFICATION_TYPE": "U",
        "NORAD_CAT_ID": 39766,
        "ELEMENT_SET_NO": 999,
        "REV_AT_EPOCH": 64374,
        "BSTAR": 5.6478626e-05,
        "MEAN_MOTION_DOT": 3.7e-06,
        "MEAN_MOTION_DDOT": 0
    },
    {
        "OBJECT_NAME": "YAOGAN-29",
        "OBJECT_ID": "2015-069A",
        "EPOCH": "2026-04-25T19:43:21.607104",
        "MEAN_MOTION": 14.83038537,
        "ECCENTRICITY": 0.0001721,
        "INCLINATION": 98.0078,
        "RA_OF_ASC_NODE": 144.3633,
        "ARG_OF_PERICENTER": 140.9347,
        "MEAN_ANOMALY": 219.199,
        "EPHEMERIS_TYPE": 0,
        "CLASSIFICATION_TYPE": "U",
        "NORAD_CAT_ID": 41038,
        "ELEMENT_SET_NO": 999,
        "REV_AT_EPOCH": 56286,
        "BSTAR": 1.6457e-06,
        "MEAN_MOTION_DOT": -4.1e-07,
        "MEAN_MOTION_DDOT": 0
    },
    {
        "OBJECT_NAME": "ASTRO-H (HITOMI)",
        "OBJECT_ID": "2016-012A",
        "EPOCH": "2026-04-25T11:54:45.984384",
        "MEAN_MOTION": 15.10271737,
        "ECCENTRICITY": 0.0009374,
        "INCLINATION": 30.9996,
        "RA_OF_ASC_NODE": 54.4204,
        "ARG_OF_PERICENTER": 82.6607,
        "MEAN_ANOMALY": 277.5096,
        "EPHEMERIS_TYPE": 0,
        "CLASSIFICATION_TYPE": "U",
        "NORAD_CAT_ID": 41337,
        "ELEMENT_SET_NO": 999,
        "REV_AT_EPOCH": 55931,
        "BSTAR": 0.00016478,
        "MEAN_MOTION_DOT": 2.861e-05,
        "MEAN_MOTION_DDOT": 0
    },
    {
        "OBJECT_NAME": "HXMT (HUIYAN)",
        "OBJECT_ID": "2017-034A",
        "EPOCH": "2026-04-25T19:57:41.904864",
        "MEAN_MOTION": 15.17990105,
        "ECCENTRICITY": 0.0031407,
        "INCLINATION": 43.0133,
        "RA_OF_ASC_NODE": 114.4605,
        "ARG_OF_PERICENTER": 175.673,
        "MEAN_ANOMALY": 184.4395,
        "EPHEMERIS_TYPE": 0,
        "CLASSIFICATION_TYPE": "U",
        "NORAD_CAT_ID": 42758,
        "ELEMENT_SET_NO": 999,
        "REV_AT_EPOCH": 48970,
        "BSTAR": 0.00017161,
        "MEAN_MOTION_DOT": 3.352e-05,
        "MEAN_MOTION_DDOT": 0
    },
    {
        "OBJECT_NAME": "SAOCOM 1A",
        "OBJECT_ID": "2018-076A",
        "EPOCH": "2026-04-25T19:34:08.508864",
        "MEAN_MOTION": 14.82154237,
        "ECCENTRICITY": 0.0001555,
        "INCLINATION": 97.8906,
        "RA_OF_ASC_NODE": 303.3217,
        "ARG_OF_PERICENTER": 90.6018,
        "MEAN_ANOMALY": 269.5373,
        "EPHEMERIS_TYPE": 0,
        "CLASSIFICATION_TYPE": "U",
        "NORAD_CAT_ID": 43641,
        "ELEMENT_SET_NO": 999,
        "REV_AT_EPOCH": 40834,
        "BSTAR": 9.3781e-05,
        "MEAN_MOTION_DOT": 6.94e-06,
        "MEAN_MOTION_DDOT": 0
    },
    {
        "OBJECT_NAME": "H-2A R/B",
        "OBJECT_ID": "2018-084L",
        "EPOCH": "2026-04-25T20:00:08.364096",
        "MEAN_MOTION": 15.43206272,
        "ECCENTRICITY": 0.0023411,
        "INCLINATION": 98.8662,
        "RA_OF_ASC_NODE": 343.3566,
        "ARG_OF_PERICENTER": 216.5608,
        "MEAN_ANOMALY": 143.4038,
        "EPHEMERIS_TYPE": 0,
        "CLASSIFICATION_TYPE": "U",
        "NORAD_CAT_ID": 43682,
        "ELEMENT_SET_NO": 999,
        "REV_AT_EPOCH": 41304,
        "BSTAR": 0.00047517,
        "MEAN_MOTION_DOT": 0.00021216,
        "MEAN_MOTION_DDOT": 0
    },
    {
        "OBJECT_NAME": "SAOCOM 1B",
        "OBJECT_ID": "2020-059A",
        "EPOCH": "2026-04-25T18:41:51.426816",
        "MEAN_MOTION": 14.82140361,
        "ECCENTRICITY": 0.0001545,
        "INCLINATION": 97.8899,
        "RA_OF_ASC_NODE": 302.3798,
        "ARG_OF_PERICENTER": 84.0048,
        "MEAN_ANOMALY": 276.1341,
        "EPHEMERIS_TYPE": 0,
        "CLASSIFICATION_TYPE": "U",
        "NORAD_CAT_ID": 46265,
        "ELEMENT_SET_NO": 999,
        "REV_AT_EPOCH": 30572,
        "BSTAR": -3.884e-05,
        "MEAN_MOTION_DOT": -3.61e-06,
        "MEAN_MOTION_DDOT": 0
    },
    {
        "OBJECT_NAME": "CSS (TIANHE)",
        "OBJECT_ID": "2021-035A",
        "EPOCH": "2026-04-25T20:13:12.500256",
        "MEAN_MOTION": 15.62957511,
        "ECCENTRICITY": 0.0006838,
        "INCLINATION": 41.467,
        "RA_OF_ASC_NODE": 280.7595,
        "ARG_OF_PERICENTER": 273.8055,
        "MEAN_ANOMALY": 86.2003,
        "EPHEMERIS_TYPE": 0,
        "CLASSIFICATION_TYPE": "U",
        "NORAD_CAT_ID": 48274,
        "ELEMENT_SET_NO": 999,
        "REV_AT_EPOCH": 28498,
        "BSTAR": 0.0003188,
        "MEAN_MOTION_DOT": 0.00029528,
        "MEAN_MOTION_DDOT": 0
    },
    {
        "OBJECT_NAME": "COSMOS 2550",
        "OBJECT_ID": "2021-056A",
        "EPOCH": "2026-04-25T20:35:33.207072",
        "MEAN_MOTION": 15.33824497,
        "ECCENTRICITY": 0.0008413,
        "INCLINATION": 67.1425,
        "RA_OF_ASC_NODE": 258.1983,
        "ARG_OF_PERICENTER": 269.6554,
        "MEAN_ANOMALY": 90.3636,
        "EPHEMERIS_TYPE": 0,
        "CLASSIFICATION_TYPE": "U",
        "NORAD_CAT_ID": 48865,
        "ELEMENT_SET_NO": 999,
        "REV_AT_EPOCH": 27069,
        "BSTAR": 4.3676e-05,
        "MEAN_MOTION_DOT": 1.245e-05,
        "MEAN_MOTION_DDOT": 0
    },
    {
        "OBJECT_NAME": "CZ-2C R/B",
        "OBJECT_ID": "2022-058K",
        "EPOCH": "2026-04-25T09:25:10.382592",
        "MEAN_MOTION": 15.57697834,
        "ECCENTRICITY": 0.003896,
        "INCLINATION": 50.1868,
        "RA_OF_ASC_NODE": 77.4034,
        "ARG_OF_PERICENTER": 40.8644,
        "MEAN_ANOMALY": 319.5237,
        "EPHEMERIS_TYPE": 0,
        "CLASSIFICATION_TYPE": "U",
        "NORAD_CAT_ID": 52794,
        "ELEMENT_SET_NO": 999,
        "REV_AT_EPOCH": 21740,
        "BSTAR": 0.00059663,
        "MEAN_MOTION_DOT": 0.00046492,
        "MEAN_MOTION_DDOT": 0
    },
    {
        "OBJECT_NAME": "CZ-2C R/B",
        "OBJECT_ID": "2022-132E",
        "EPOCH": "2026-04-25T12:34:11.891136",
        "MEAN_MOTION": 15.66133941,
        "ECCENTRICITY": 0.0012864,
        "INCLINATION": 97.2944,
        "RA_OF_ASC_NODE": 120.4214,
        "ARG_OF_PERICENTER": 273.1631,
        "MEAN_ANOMALY": 86.8157,
        "EPHEMERIS_TYPE": 0,
        "CLASSIFICATION_TYPE": "U",
        "NORAD_CAT_ID": 54039,
        "ELEMENT_SET_NO": 999,
        "REV_AT_EPOCH": 19769,
        "BSTAR": 0.00041913,
        "MEAN_MOTION_DOT": 0.00043202,
        "MEAN_MOTION_DDOT": 0
    }
]